1 00009U          23274.66666667  .00000000  00000-0  00000-0 0 00009
2 00009 097.4152 100.1516 0009339 322.4654 253.5374 15.20925384000012
